[{"OBJECT_NAME":"ONEWEB-0312","OBJECT_ID":"2021-075Z","EPOCH":"2026-03-09T22:31:12.455040","MEAN_MOTION":13.17649129,"ECCENTRICITY":0.00020326,"INCLINATION":87.9153,"RA_OF_ASC_NODE":25.5826,"ARG_OF_PERICENTER":72.3463,"MEAN_ANOMALY":287.7891,"EPHEMERIS_TYPE":0,"CLASSIFICATION_TYPE":"U","NORAD_CAT_ID":49098,"ELEMENT_SET_NO":999,"REV_AT_EPOCH":22053,"BSTAR":4.8302552e-5,"MEAN_MOTION_DOT":3.2e-7,"MEAN_MOTION_DDOT":0},{"OBJECT_NAME":"USA 76","OBJECT_ID":"1991-076D","EPOCH":"2026-03-09T13:26:15.944928","MEAN_MOTION":13.58542045,"ECCENTRICITY":0.0886705,"INCLINATION":63.2994,"RA_OF_ASC_NODE":60.1095,"ARG_OF_PERICENTER":72.6365,"MEAN_ANOMALY":296.9601,"EPHEMERIS_TYPE":0,"CLASSIFICATION_TYPE":"U","NORAD_CAT_ID":21808,"ELEMENT_SET_NO":999,"REV_AT_EPOCH":9249,"BSTAR":0.00059173,"MEAN_MOTION_DOT":7.457e-5,"MEAN_MOTION_DDOT":0}]
